NUSAT-1 (FRESCO)        
1 41557U 16033B   22185.59638462  .00006544  00000+0  19481-3 0  9990
2 41557  97.3896 283.3265 0009376 321.4018 152.7930 15.35012772340017
BEESAT-4                
1 41619U 16040W   22185.10517998  .00008295  00000+0  27464-3 0  9999
2 41619  97.2149 235.2924 0010825  65.3439 294.8929 15.31500099323271
CAS-2T & KS-1Q          
1 41847U 16066G   22185.45336976  .00000693  00000+0  11305-3 0  9994
2 41847  98.5501 250.1065 0364318 158.8763 202.7921 14.38610361296795
NAYIF-1 (EO-88)         
1 42017U 17008BX  22185.44980483  .00011736  00000+0  34693-3 0  9993
2 42017  97.2673 251.3210 0005710 166.1769 193.9632 15.35066202299680
ZHUHAI-1 02 (CAS-4B)    
1 42759U 17034B   22185.49828072  .00001435  00000+0  94977-4 0  9992
2 42759  43.0173 238.7458 0008621  27.2686 112.2398 15.12009414278934
ZHUHAI-1 01 (CAS-4A)    
1 42761U 17034D   22185.53326898  .00001550  00000+0  10131-3 0  9996
2 42761  43.0172 237.3221 0009078  29.4248 111.2966 15.12095783278949
MAX VALIER SAT          
1 42778U 17036P   22185.35992426  .00005098  00000+0  19359-3 0  9994
2 42778  97.2033 225.8812 0008749 263.3754  96.6490 15.27223019279486
RADFXSAT (FOX-1B)       
1 43017U 17073E   22185.39321220  .00001972  00000+0  15114-3 0  9996
2 43017  97.6735  78.8938 0249485 132.1322 230.1390 14.81472975249622
FOX-1D (AO-92)          
1 43137U 18004AC  22185.43217237  .00006416  00000+0  22586-3 0  9990
2 43137  97.3677 260.4381 0005965 307.6162  52.4536 15.29649831248943
DIWATA-2B               
1 43678U 18084H   22185.48198467  .00000789  00000+0  83250-4 0  9999
2 43678  97.9738 318.9490 0008752 223.1910 136.8603 14.92197129200393
ES'HAIL 2               
1 43700U 18090A   22185.30033295  .00000154  00000+0  00000+0 0  9993
2 43700   0.0221  39.6579 0001159  79.0181 297.5327  1.00269000 13199
FOX-1CLIFF (AO-95)      
1 43770U 18099N   22185.17293376  .00001026  00000+0  95171-4 0  9999
2 43770  97.6197 251.0891 0013415 214.8339 145.2005 14.96496451195519
ITASAT 1                
1 43786U 18099AE  22185.43206007  .00000576  00000+0  55459-4 0  9994
2 43786  97.6228 252.2696 0014105 206.6267 153.4232 14.96637637195597
JY1SAT (JO-97)          
1 43803U 18099AX  22185.44416886  .00001267  00000+0  11451-3 0  9994
2 43803  97.6183 252.0409 0014253 205.6861 154.3655 14.97142031195612
UWE-4                   
1 43880U 18111E   22185.49841382  .00001944  00000+0  16842-3 0  9993
2 43880  97.6685  91.5123 0009557 263.6307  96.3827 14.98239581192254
NEXUS (FO-99)           
1 43937U 19003F   22185.36032777  .00008459  00000+0  28250-3 0  9997
2 43937  97.1286 218.0550 0022551  94.2584 266.1236 15.31017976192568
PSAT2 (NO-104)          
1 44354U 19036R   22184.98217849  .00041745 -57001-5  35429-3 0  9990
2 44354  28.5250  63.5959 0223275 157.1666 203.9040 15.41701394167236
JAISAT-1                
1 44419U 19038F   22185.45012789  .00005404  00000+0  27138-3 0  9993
2 44419  97.6367 155.7120 0021249  74.5626 285.7952 15.17524075165637
DUCHIFAT-3              
1 44854U 19089C   22185.47238125  .00001710  00000+0  13691-3 0  9993
2 44854  36.9685 359.4445 0009090 351.8247  30.4122 15.01165108140494
CAS-6 (TO-108)          
1 44881U 19093C   22185.46097819  .00000298  00000+0  44388-4 0  9998
2 44881  97.8930 264.4262 0016106 127.5290 232.7393 14.81744258137294
RS-44 & BREEZE-KM R/B   
1 44909U 19096E   22185.54702537  .00000006  00000+0 -12530-4 0  9993
2 44909  82.5201 218.9194 0216177 279.8358  77.8398 12.79713769117694
ORBITAL FACTORY 2 (OF-2)
1 45113U 19071C   22185.43545907  .00017961  00000+0  36767-3 0  9992
2 45113  51.6392 335.7644 0009668 234.3410 125.6678 15.46124470136009
HUSKYSAT-1 (HO-107)     
1 45119U 19071J   22185.45180209  .00015978  00000+0  33951-3 0  9998
2 45119  51.6394 335.8471 0009390 230.2991 129.7169 15.45123886135993
BY70-2                  
1 45857U 20042B   22185.46485309  .00003684  00000+0  49351-3 0  9999
2 45857  97.9555 262.1435 0011869  68.9206 291.3266 14.79977546107972
SALSAT                  
1 46495U 20068K   22185.52147203  .00001768  00000+0  13028-3 0  9994
2 46495  97.7299 126.8274 0015574 216.0681 143.9496 15.04567554 96754
BY70-3                  
1 46839U 20079N   22185.57814516  .00012733  00000+0  29481-3 0  9995
2 46839  97.1974 257.4543 0003875 265.5405 233.3303 15.42574753 92886
RADFXSAT-2 (AO-109)     
1 47311U 21002C   22185.57625850  .00005069  00000+0  20841-3 0  9994
2 47311  60.6864 297.7783 0019437 351.7702   8.3065 15.25510085 81070
UVSQ-SAT                
1 47438U 21006AB  22185.11385304  .00003428  00000+0  18253-3 0  9996
2 47438  97.4357 243.7826 0011154 209.4338 150.6268 15.15841875 79803
DIY-1 (ARDUIQUBE)       
1 47963U 21022AH  22185.26929672  .00009856  00000+0  54577-3 0  9995
2 47963  97.5306  86.4364 0019207  75.7408 284.5955 15.13871264 69496
XW-3 (CAS-9)            
1 50466U 21131B   22185.56130759  .00000038  00000+0  27007-4 0  9993
2 50466  98.5804 262.8072 0005935  99.4312 260.7546 14.38504889 27373
TEVEL-3                 
1 50988U 22002E   22185.54725148  .00003219  00000+0  17782-3 0  9992
2 50988  97.4812 252.2456 0009521  16.0021  91.1835 15.14587711 26001
TEVEL-8                 
1 50989U 22002F   22185.48823189  .00003222  00000+0  17827-3 0  9994
2 50989  97.4820 252.2056 0009435  14.8274  99.7621 15.14535710 25993
TEVEL-5                 
1 50998U 22002Q   22185.56289458  .00003516  00000+0  19125-3 0  9997
2 50998  97.4804 252.3586 0010970  10.1978  98.2168 15.15068179 26015
TEVEL-6                 
1 50999U 22002R   22185.56207685  .00003528  00000+0  19186-3 0  9990
2 50999  97.4803 252.3571 0010919   9.8879  96.2064 15.15072953 26015
TEVEL-1                 
1 51013U 22002AF  22185.48680949  .00003220  00000+0  17803-3 0  9990
2 51013  97.4799 252.1680 0009505  15.2912 109.0820 15.14563244 25990
TEVEL-7                 
1 51062U 22002CG  22185.49204815  .00003262  00000+0  18045-3 0  9994
2 51062  97.4814 252.1974 0009578  14.1513 113.5636 15.14526223 25994
TEVEL-4                 
1 51063U 22002CH  22185.55493958  .00003214  00000+0  17790-3 0  9993
2 51063  97.4815 252.2564 0009564  14.3213  93.0579 15.14518310 26005
TEVEL-2                 
1 51069U 22002CP  22185.48544977  .00003227  00000+0  17832-3 0  9990
2 51069  97.4809 252.1733 0009539  15.5639 108.9510 15.14579962 25996
CUTE-1 (CO-55)          
1 27844U 03031E   22185.51928733  .00000134  00000+0  79481-4 0  9998
2 27844  98.6777 192.9472 0010933  56.9873 303.2354 14.22461751986331
CUBESAT XI-IV (CO-57)   
1 27848U 03031J   22185.48759418  .00000109  00000+0  69192-4 0  9990
2 27848  98.6823 193.4323 0010945  69.6912 290.5441 14.22017600986106
CUBESAT XI-V            
1 28895U 05043F   22185.32802206  .00000448  00000+0  93629-4 0  9993
2 28895  98.1090 316.4481 0018009  89.0479 271.2787 14.64369462889883
CUTE-1.7+APD II (CO-65) 
1 32785U 08021C   22185.42507020  .00000831  00000+0  92481-4 0  9993
2 32785  97.6580 155.7366 0012745 170.2857 189.8610 14.89635622769016
AAUSAT-II               
1 32788U 08021F   22185.47605580  .00002231  00000+0  19551-3 0  9993
2 32788  97.5333 170.1894 0012579  67.7575 292.4980 14.97585811770985
DELFI-C3 (DO-64)        
1 32789U 08021G   22185.33651057  .00007048  00000+0  39010-3 0  9992
2 32789  97.3378 211.0267 0008106 261.7858  98.2454 15.14112228774488
SEEDS II (CO-66)        
1 32791U 08021J   22185.40259678  .00001491  00000+0  14945-3 0  9992
2 32791  97.6121 161.1902 0013980 128.4839 231.7637 14.92733662769729
SWISSCUBE               
1 35932U 09051B   22185.54624505  .00000347  00000+0  88234-4 0  9998
2 35932  98.5671  41.9598 0007661   5.1136 355.0138 14.56882978678589
BEESAT-1                
1 35933U 09051C   22185.50113833  .00000298  00000+0  77222-4 0  9992
2 35933  98.5611  43.5316 0006152  20.0406 340.1032 14.56896819678655
ITUPSAT1                
1 35935U 09051E   22185.52899782  .00000261  00000+0  70383-4 0  9991
2 35935  98.5712  43.6117 0008483  19.6726 340.4796 14.56004352678368
TISAT 1                 
1 36799U 10035E   22185.54341757  .00001531  00000+0  15324-3 0  9994
2 36799  98.1810  36.6603 0012840  44.8827 315.3427 14.92956869650314
M-CUBED & EXP-1 PRIME   
1 37855U 11061F   22185.30641985  .00004748  00000+0  21131-3 0  9994
2 37855 101.7118 313.3018 0152428  11.8510 348.6228 15.12629291583788
AEROCUBE 4.5A           
1 38767U 12048K   22185.37643477  .00001372  00000+0  10605-3 0  9992
2 38767  64.6644  57.6975 0175545 257.9405 100.1990 14.94927535153313
AEROCUBE 4.5B           
1 38768U 12048L   22185.47193601  .00003012  00000+0  19697-3 0  9996
2 38768  64.6667  11.5687 0162593 253.3024 105.0192 14.99679104153706
STRAND-1                
1 39090U 13009E   22185.51802488  .00000070  00000+0  39165-4 0  9992
2 39090  98.4039  23.2084 0008259 214.3588 145.7065 14.35298712489843
BRITE-AUSTRIA           
1 39091U 13009F   22185.50298720  .00000045  00000+0  30786-4 0  9992
2 39091  98.4054  22.3646 0009576 222.5915 137.4529 14.35279900489877
SOMP                    
1 39134U 13015E   22185.50699933  .00008969  00000+0  31993-3 0  9991
2 39134  64.8625   5.9066 0035169 277.0517  82.6616 15.28863164509841
BEESAT-3                
1 39135U 13015F   22185.32177815  .00005480  00000+0  22839-3 0  9996
2 39135  64.8664  42.9670 0038215 283.1947  76.4920 15.24127891508683
BEESAT-2                
1 39136U 13015G   22185.05248643  .00004873  00000+0  21326-3 0  9990
2 39136  64.8749  52.0951 0017272 296.9256  63.0108 15.23134441508449
NEE-01 PEGASO           
1 39151U 13018B   22185.26770113  .00000664  00000+0  92588-4 0  9998
2 39151  97.9928 290.8734 0016492 196.1110 163.9580 14.80969823496167
ESTCUBE 1               
1 39161U 13021C   22185.47351163  .00000533  00000+0  90551-4 0  9999
2 39161  97.9077 262.2675 0009929  15.6898 344.4622 14.72978296491977
